{
  "type": "FeatureCollection",
  "features": [
    {
      "type": "Feature",
      "properties": {
        "norad_id": 34492,
        "name": "IRIDIUM 33 DEB",
        "group": "iridium-33-debris",
        "lat": 68.01715427248527,
        "lon": 143.40895179725104,
        "alt_km": 836.5205748393382,
        "timestamp": "2025-12-18T17:50:15.340190+00:00",
        "meta_object_name": "IRIDIUM 33 DEB",
        "meta_object_id": "1997-051GH",
        "meta_epoch": "2025-12-17T23:02:29.114016",
        "meta_mean_motion": 14.25827774,
        "meta_eccentricity": 0.0188674,
        "meta_inclination": 86.471,
        "meta_ra_of_asc_node": 332.5187,
        "meta_arg_of_pericenter": 221.2374,
        "meta_mean_anomaly": 195.0015,
        "meta_ephemeris_type": 0,
        "meta_classification_type": "U",
        "meta_norad_cat_id": 34492,
        "meta_element_set_no": 999,
        "meta_rev_at_epoch": 85133,
        "meta_bstar": 0.0026488985,
        "meta_mean_motion_dot": 7.614e-05,
        "meta_mean_motion_ddot": 0,
        "tle_line1": "1 34492U 97051GH  25351.96005919  .00007614  00000+0  26489-2 0  9997",
        "tle_line2": "2 34492  86.4710 332.5187 0188674 221.2374 195.0015 14.25827774851332"
      },
      "geometry": {
        "type": "Point",
        "coordinates": [
          143.40895179725104,
          68.01715427248527
        ]
      }
    },
    {
      "type": "Feature",
      "properties": {
        "norad_id": 34497,
        "name": "IRIDIUM 33 DEB",
        "group": "iridium-33-debris",
        "lat": 28.874361616781773,
        "lon": 51.89425722572571,
        "alt_km": 778.4429553806649,
        "timestamp": "2025-12-18T17:50:15.340200+00:00",
        "meta_object_name": "IRIDIUM 33 DEB",
        "meta_object_id": "1997-051GN",
        "meta_epoch": "2025-12-18T04:30:11.149056",
        "meta_mean_motion": 14.27469284,
        "meta_eccentricity": 0.00783512,
        "meta_inclination": 86.2772,
        "meta_ra_of_asc_node": 50.074,
        "meta_arg_of_pericenter": 321.7487,
        "meta_mean_anomaly": 93.0567,
        "meta_ephemeris_type": 0,
        "meta_classification_type": "U",
        "meta_norad_cat_id": 34497,
        "meta_element_set_no": 999,
        "meta_rev_at_epoch": 86961,
        "meta_bstar": 0.00048701444,
        "meta_mean_motion_dot": 1.253e-05,
        "meta_mean_motion_ddot": 0,
        "tle_line1": "1 34497U 97051GN  25352.18762904  .00001253  00000+0  48701-3 0  9996",
        "tle_line2": "2 34497  86.2772  50.0740 0078351 321.7487  93.0567 14.27469284869610"
      },
      "geometry": {
        "type": "Point",
        "coordinates": [
          51.89425722572571,
          28.874361616781773
        ]
      }
    },
    {
      "type": "Feature",
      "properties": {
        "norad_id": 34508,
        "name": "IRIDIUM 33 DEB",
        "group": "iridium-33-debris",
        "lat": 62.36434368863066,
        "lon": 107.06092433579033,
        "alt_km": 758.068930833223,
        "timestamp": "2025-12-18T17:50:15.340210+00:00",
        "meta_object_name": "IRIDIUM 33 DEB",
        "meta_object_id": "1997-051GZ",
        "meta_epoch": "2025-12-18T05:51:32.963328",
        "meta_mean_motion": 14.38469634,
        "meta_eccentricity": 0.00664821,
        "meta_inclination": 86.3707,
        "meta_ra_of_asc_node": 100.3099,
        "meta_arg_of_pericenter": 155.2667,
        "meta_mean_anomaly": 205.1744,
        "meta_ephemeris_type": 0,
        "meta_classification_type": "U",
        "meta_norad_cat_id": 34508,
        "meta_element_set_no": 999,
        "meta_rev_at_epoch": 87388,
        "meta_bstar": 0.0010087099,
        "meta_mean_motion_dot": 3.179e-05,
        "meta_mean_motion_ddot": 0,
        "tle_line1": "1 34508U 97051GZ  25352.24413152  .00003179  00000+0  10087-2 0  9998",
        "tle_line2": "2 34508  86.3707 100.3099 0066482 155.2667 205.1744 14.38469634873888"
      },
      "geometry": {
        "type": "Point",
        "coordinates": [
          107.06092433579033,
          62.36434368863066
        ]
      }
    },
    {
      "type": "Feature",
      "properties": {
        "norad_id": 34521,
        "name": "IRIDIUM 33 DEB",
        "group": "iridium-33-debris",
        "lat": 59.14192950556417,
        "lon": 33.98836619513944,
        "alt_km": 677.4937978976404,
        "timestamp": "2025-12-18T17:50:15.340219+00:00",
        "meta_object_name": "IRIDIUM 33 DEB",
        "meta_object_id": "1997-051HN",
        "meta_epoch": "2025-12-18T02:47:51.740448",
        "meta_mean_motion": 14.63411411,
        "meta_eccentricity": 0.00022087,
        "meta_inclination": 86.3795,
        "meta_ra_of_asc_node": 28.1812,
        "meta_arg_of_pericenter": 189.1491,
        "meta_mean_anomaly": 170.9681,
        "meta_ephemeris_type": 0,
        "meta_classification_type": "U",
        "meta_norad_cat_id": 34521,
        "meta_element_set_no": 999,
        "meta_rev_at_epoch": 88551,
        "meta_bstar": 0.00065140638,
        "meta_mean_motion_dot": 3.389e-05,
        "meta_mean_motion_ddot": 0,
        "tle_line1": "1 34521U 97051HN  25352.11657107  .00003389  00000+0  65141-3 0  9994",
        "tle_line2": "2 34521  86.3795  28.1812 0002208 189.1491 170.9681 14.63411411885517"
      },
      "geometry": {
        "type": "Point",
        "coordinates": [
          33.98836619513944,
          59.14192950556417
        ]
      }
    },
    {
      "type": "Feature",
      "properties": {
        "norad_id": 34525,
        "name": "IRIDIUM 33 DEB",
        "group": "iridium-33-debris",
        "lat": 23.31611971779261,
        "lon": -137.28541098433195,
        "alt_km": 747.3379509673014,
        "timestamp": "2025-12-18T17:50:15.340229+00:00",
        "meta_object_name": "IRIDIUM 33 DEB",
        "meta_object_id": "1997-051HS",
        "meta_epoch": "2025-12-18T04:02:52.111680",
        "meta_mean_motion": 14.42918347,
        "meta_eccentricity": 0.00065369,
        "meta_inclination": 86.3724,
        "meta_ra_of_asc_node": 44.5266,
        "meta_arg_of_pericenter": 82.6787,
        "meta_mean_anomaly": 331.047,
        "meta_ephemeris_type": 0,
        "meta_classification_type": "U",
        "meta_norad_cat_id": 34525,
        "meta_element_set_no": 999,
        "meta_rev_at_epoch": 88166,
        "meta_bstar": 0.00027979279,
        "meta_mean_motion_dot": 9.55e-06,
        "meta_mean_motion_ddot": 0,
        "tle_line1": "1 34525U 97051HS  25352.16865870  .00000955  00000+0  27979-3 0  9994",
        "tle_line2": "2 34525  86.3724  44.5266 0006536  82.6787 331.0470 14.42918347881666"
      },
      "geometry": {
        "type": "Point",
        "coordinates": [
          -137.28541098433195,
          23.31611971779261
        ]
      }
    },
    {
      "type": "Feature",
      "properties": {
        "norad_id": 34529,
        "name": "IRIDIUM 33 DEB",
        "group": "iridium-33-debris",
        "lat": 1.5767316876651645,
        "lon": 32.95282944067597,
        "alt_km": 762.8856954022276,
        "timestamp": "2025-12-18T17:50:15.340239+00:00",
        "meta_object_name": "IRIDIUM 33 DEB",
        "meta_object_id": "1997-051HW",
        "meta_epoch": "2025-12-18T02:49:37.866432",
        "meta_mean_motion": 14.40619942,
        "meta_eccentricity": 0.00054631,
        "meta_inclination": 86.3635,
        "meta_ra_of_asc_node": 33.1191,
        "meta_arg_of_pericenter": 160.6247,
        "meta_mean_anomaly": 199.5161,
        "meta_ephemeris_type": 0,
        "meta_classification_type": "U",
        "meta_norad_cat_id": 34529,
        "meta_element_set_no": 999,
        "meta_rev_at_epoch": 88219,
        "meta_bstar": 9.3845134e-05,
        "meta_mean_motion_dot": 3.19e-06,
        "meta_mean_motion_ddot": 0,
        "tle_line1": "1 34529U 97051HW  25352.11779938  .00000319  00000+0  93845-4 0  9992",
        "tle_line2": "2 34529  86.3635  33.1191 0005463 160.6247 199.5161 14.40619942882198"
      },
      "geometry": {
        "type": "Point",
        "coordinates": [
          32.95282944067597,
          1.5767316876651645
        ]
      }
    },
    {
      "type": "Feature",
      "properties": {
        "norad_id": 34538,
        "name": "IRIDIUM 33 DEB",
        "group": "iridium-33-debris",
        "lat": -62.53226024487439,
        "lon": -169.87734094036293,
        "alt_km": 747.0340016236823,
        "timestamp": "2025-12-18T17:50:15.340250+00:00",
        "meta_object_name": "IRIDIUM 33 DEB",
        "meta_object_id": "1997-051JF",
        "meta_epoch": "2025-12-18T05:39:21.453408",
        "meta_mean_motion": 14.42680198,
        "meta_eccentricity": 0.00323077,
        "meta_inclination": 86.2766,
        "meta_ra_of_asc_node": 3.1488,
        "meta_arg_of_pericenter": 309.1252,
        "meta_mean_anomaly": 179.4598,
        "meta_ephemeris_type": 0,
        "meta_classification_type": "U",
        "meta_norad_cat_id": 34538,
        "meta_element_set_no": 999,
        "meta_rev_at_epoch": 87835,
        "meta_bstar": 0.00076545295,
        "meta_mean_motion_dot": 2.58e-05,
        "meta_mean_motion_ddot": 0,
        "tle_line1": "1 34538U 97051JF  25352.23566497  .00002580  00000+0  76545-3 0  9998",
        "tle_line2": "2 34538  86.2766   3.1488 0032307 309.1252 179.4598 14.42680198878358"
      },
      "geometry": {
        "type": "Point",
        "coordinates": [
          -169.87734094036293,
          -62.53226024487439
        ]
      }
    }
  ]
}